{"type":"FeatureCollection","name":"Shimoyoshida authored route","features":[{"type":"Feature","id":"atlas-shimoyoshida-traverse","properties":{"name":"Shimoyoshida traverse","kind":"authored_exhibition_route","source":"GSI road centerlines","distance_m":3254.7,"measured_route":false,"road_aligned":true,"note":"Authored exhibit traversal following real GSI road geometry; not a recommended or verified pedestrian itinerary."},"geometry":{"type":"LineString","coordinates":[[138.80051315,35.47807464],[138.80043939,35.47811723],[138.80029321,35.47821443],[138.79999951,35.47837825],[138.79975274,35.47851694],[138.79979298,35.478565],[138.79999951,35.47880853],[138.80046219,35.4793382],[138.80080014,35.47974118],[138.80126953,35.48029596],[138.8013339,35.48037132],[138.80219355,35.48138258],[138.80287617,35.48217541],[138.80360305,35.48303813],[138.80385384,35.48333408],[138.80399063,35.48349461],[138.80477786,35.48441956],[138.8050662,35.48423501],[138.80532101,35.4846871],[138.80534515,35.4847286],[138.80549937,35.48500161],[138.8059929,35.4858916],[138.8060613,35.4860139],[138.80624369,35.48633495],[138.80653337,35.486846],[138.80659238,35.4869552],[138.8067627,35.48726423],[138.8067627,35.48726424],[138.80689949,35.48751102],[138.80716637,35.4879915],[138.80760625,35.48777528],[138.80814402,35.48751102],[138.80814403,35.48751102],[138.80820438,35.48748154],[138.80833313,35.4874193],[138.80887359,35.48715285],[138.80884945,35.48732211],[138.80882666,35.48735705],[138.80881727,35.48751102],[138.80881459,35.48756562],[138.80878642,35.48766827],[138.80876094,35.48773816],[138.80872339,35.48781787],[138.80864695,35.48794454],[138.80861074,35.48797184],[138.80853429,35.48802862],[138.80840018,35.48810069],[138.80833313,35.48814437],[138.80832642,35.48814874],[138.80827412,35.4881946],[138.80820572,35.48826231],[138.80816415,35.48829397],[138.80802602,35.48837369],[138.80797371,35.4883988],[138.80791202,35.48842828],[138.80784094,35.48845231],[138.80757675,35.48851455],[138.8074708,35.48851783],[138.80770013,35.48894369],[138.80831435,35.49003456],[138.80832642,35.49005858],[138.80833313,35.4900695],[138.8085182,35.49040473],[138.80862281,35.49058818],[138.80884677,35.49097909],[138.80892858,35.49116363],[138.80896345,35.49125972],[138.80899966,35.49140167],[138.80903721,35.49166701],[138.80905867,35.49198366],[138.80908817,35.4923844],[138.80932286,35.49236147],[138.80955353,35.49234072],[138.80967557,35.49233526],[138.80983517,35.49232871],[138.81020665,35.49233199],[138.810381,35.49233745],[138.81047487,35.49234181],[138.8107954,35.49235929],[138.81110385,35.49236474],[138.81128222,35.49235273],[138.8113533,35.49233526],[138.81138816,35.49253508],[138.81141633,35.49272508],[138.81146193,35.49315311],[138.81146327,35.49319023],[138.81148472,35.4933835],[138.81154507,35.49370779],[138.81160811,35.49393382],[138.81166577,35.49405938],[138.81167516,35.49409214],[138.81173819,35.49437603],[138.81173953,35.49440442],[138.81195143,35.49445574],[138.81216198,35.49449614],[138.81225586,35.49451143],[138.81237119,35.4945278],[138.81243959,35.49454309],[138.81258175,35.49459659],[138.81264612,35.49463372],[138.81269842,35.49465119],[138.81276146,35.49466102],[138.81298274,35.49468831],[138.81310612,35.4946894],[138.81319061,35.49468176],[138.81329656,35.49466429],[138.81338775,35.49465446],[138.81345212,35.4946632],[138.81350845,35.49468722],[138.81362781,35.49475383],[138.81366,35.4947702],[138.8137579,35.49483462],[138.81380349,35.49486957],[138.81381154,35.4948914],[138.81383434,35.4949318],[138.81398454,35.49510978],[138.81403551,35.49513708],[138.81410524,35.49515891],[138.81418034,35.4951742],[138.81422997,35.49517529],[138.81424874,35.49520586],[138.81426483,35.49525937],[138.81429836,35.49544062],[138.81433725,35.49558038],[138.81435603,35.49568301],[138.81435469,35.4957518],[138.81433859,35.49584461],[138.81433457,35.49592104],[138.81434262,35.49597345],[138.81436944,35.49603023],[138.81443381,35.49612631],[138.81445929,35.49645606],[138.81448478,35.49661438],[138.8144955,35.49674103],[138.81453708,35.49685022],[138.81456658,35.49696377],[138.81461754,35.49708169],[138.81468058,35.49717887],[138.81475568,35.49724984],[138.8148053,35.49727277],[138.81494746,35.49730006],[138.81538063,35.49744309],[138.81555364,35.49726731]]}}],"bbox":[138.791,35.474,138.827,35.505],"description":"Authored exhibit traversal following real GSI road geometry; not a recommended or verified pedestrian itinerary."}